start=new Date('2023-06-02T00:00:00.000Z').valueOf();
sats=[{"DECAY_DATE":null,"RCS_SIZE":"LARGE","TLE_LINE2":"2 52456  53.2165 293.3862 0000976  80.3940 279.7162 15.08838164 59298","NORAD_CAT_ID":"52456","ECCENTRICITY":"0.00009760","PERIAPSIS":"539.076","MEAN_ANOMALY":"279.7162","BSTAR":"0.00009395700000","OBJECT_ID":"2022-049F","RA_OF_ASC_NODE":"293.3862","MEAN_MOTION":"15.08838164","EPOCH":"2023-06-01T10:01:02.461440","CENTER_NAME":"EARTH","GP_ID":"232963686","MEAN_MOTION_DOT":"0.00001208","SEMIMAJOR_AXIS":"6917.886","REV_AT_EPOCH":"5929","COUNTRY_CODE":"US","OBJECT_NAME":"STARLINK-3896","CLASSIFICATION_TYPE":"U","FILE":"3922365","ELEMENT_SET_NO":"999","TIME_SYSTEM":"UTC","PERIOD":"95.438","ARG_OF_PERICENTER":"80.3940","MEAN_MOTION_DDOT":"0.0000000000000","REF_FRAME":"TEME","TLE_LINE1":"1 52456U 22049F   23152.41738960  .00001208  00000-0  93957-4 0  9998","EPHEMERIS_TYPE":"0","OBJECT_TYPE":"PAYLOAD","MEAN_ELEMENT_THEORY":"SGP4","INCLINATION":"53.2165","LAUNCH_DATE":"2022-05-06","APOAPSIS":"540.426","SITE":"AFETR"},{"REF_FRAME":"TEME","TLE_LINE1":"1 52457U 22049G   23152.41274803  .00000405  00000-0  43504-4 0  9991","EPHEMERIS_TYPE":"0","MEAN_ELEMENT_THEORY":"SGP4","OBJECT_TYPE":"PAYLOAD","INCLINATION":"53.2171","LAUNCH_DATE":"2022-05-06","APOAPSIS":"540.537","SITE":"AFETR","CLASSIFICATION_TYPE":"U","COUNTRY_CODE":"US","OBJECT_NAME":"STARLINK-3899","ELEMENT_SET_NO":"999","FILE":"3922365","TIME_SYSTEM":"UTC","PERIOD":"95.438","ARG_OF_PERICENTER":"101.6489","MEAN_MOTION_DDOT":"0.0000000000000","OBJECT_ID":"2022-049G","RA_OF_ASC_NODE":"293.3950","EPOCH":"2023-06-01T09:54:21.429792","MEAN_MOTION":"15.08840671","CENTER_NAME":"EARTH","GP_ID":"232963431","MEAN_MOTION_DOT":"0.00000405","SEMIMAJOR_AXIS":"6917.878","REV_AT_EPOCH":"5929","RCS_SIZE":"LARGE","DECAY_DATE":null,"TLE_LINE2":"2 52457  53.2171 293.3950 0001147 101.6489 258.4632 15.08840671 59292","NORAD_CAT_ID":"52457","ECCENTRICITY":"0.00011470","PERIAPSIS":"538.950","MEAN_ANOMALY":"258.4632","BSTAR":"0.00004350400000"},{"COUNTRY_CODE":"US","CLASSIFICATION_TYPE":"U","OBJECT_NAME":"STARLINK-3898","FILE":"3922649","ELEMENT_SET_NO":"999","TIME_SYSTEM":"UTC","PERIOD":"95.438","ARG_OF_PERICENTER":"95.9559","MEAN_MOTION_DDOT":"0.0000000000000","REF_FRAME":"TEME","TLE_LINE1":"1 52458U 22049H   23152.41002831  .00000378  00000-0  41818-4 0  9997","EPHEMERIS_TYPE":"0","OBJECT_TYPE":"PAYLOAD","MEAN_ELEMENT_THEORY":"SGP4","INCLINATION":"53.2169","LAUNCH_DATE":"2022-05-06","APOAPSIS":"540.488","SITE":"AFETR","DECAY_DATE":null,"RCS_SIZE":"LARGE","TLE_LINE2":"2 52458  53.2169 293.4213 0001058  95.9559 264.1553 15.08836531 59451","NORAD_CAT_ID":"52458","ECCENTRICITY":"0.00010580","PERIAPSIS":"539.024","MEAN_ANOMALY":"264.1553","BSTAR":"0.00004181800000","OBJECT_ID":"2022-049H","RA_OF_ASC_NODE":"293.4213","MEAN_MOTION":"15.08836531","EPOCH":"2023-06-01T09:50:26.445984","CENTER_NAME":"EARTH","GP_ID":"232973740","MEAN_MOTION_DOT":"0.00000378","SEMIMAJOR_AXIS":"6917.891","REV_AT_EPOCH":"5945"},{"PERIOD":"95.438","ARG_OF_PERICENTER":"97.2791","FILE":"3922365","ELEMENT_SET_NO":"999","TIME_SYSTEM":"UTC","MEAN_MOTION_DDOT":"0.0000000000000","COUNTRY_CODE":"US","CLASSIFICATION_TYPE":"U","OBJECT_NAME":"STARLINK-3856","INCLINATION":"53.2171","LAUNCH_DATE":"2022-05-06","SITE":"AFETR","APOAPSIS":"540.506","EPHEMERIS_TYPE":"0","TLE_LINE1":"1 52459U 22049J   23152.39527212  .00000923  00000-0  76076-4 0  9990","OBJECT_TYPE":"PAYLOAD","MEAN_ELEMENT_THEORY":"SGP4","REF_FRAME":"TEME","MEAN_ANOMALY":"262.8325","PERIAPSIS":"538.998","BSTAR":"0.00007607600000","RCS_SIZE":"LARGE","DECAY_DATE":null,"NORAD_CAT_ID":"52459","ECCENTRICITY":"0.00010900","TLE_LINE2":"2 52459  53.2171 283.4885 0001090  97.2791 262.8325 15.08837747 59427","GP_ID":"232962435","SEMIMAJOR_AXIS":"6917.887","REV_AT_EPOCH":"5942","MEAN_MOTION_DOT":"0.00000923","OBJECT_ID":"2022-049J","CENTER_NAME":"EARTH","RA_OF_ASC_NODE":"283.4885","MEAN_MOTION":"15.08837747","EPOCH":"2023-06-01T09:29:11.511168"},{"LAUNCH_DATE":"2022-05-06","INCLINATION":"53.2155","SITE":"AFETR","APOAPSIS":"540.127","OBJECT_TYPE":"PAYLOAD","MEAN_ELEMENT_THEORY":"SGP4","TLE_LINE1":"1 52460U 22049K   23152.38790329  .00001815  00000-0  13205-3 0  9997","EPHEMERIS_TYPE":"0","REF_FRAME":"TEME","ARG_OF_PERICENTER":"62.0200","PERIOD":"95.438","TIME_SYSTEM":"UTC","FILE":"3922649","ELEMENT_SET_NO":"999","MEAN_MOTION_DDOT":"0.0000000000000","CLASSIFICATION_TYPE":"U","COUNTRY_CODE":"US","OBJECT_NAME":"STARLINK-3865","GP_ID":"232973736","REV_AT_EPOCH":"5958","SEMIMAJOR_AXIS":"6917.881","MEAN_MOTION_DOT":"0.00001815","OBJECT_ID":"2022-049K","CENTER_NAME":"EARTH","MEAN_MOTION":"15.08839922","EPOCH":"2023-06-01T09:18:34.844256","RA_OF_ASC_NODE":"283.4734","MEAN_ANOMALY":"298.0847","PERIAPSIS":"539.364","BSTAR":"0.00013205000000","RCS_SIZE":"LARGE","DECAY_DATE":null,"ECCENTRICITY":"0.00005510","NORAD_CAT_ID":"52460","TLE_LINE2":"2 52460  53.2155 283.4734 0000551  62.0200 298.0847 15.08839922 59584"},{"BSTAR":"0.00002239400000","PERIAPSIS":"539.121","MEAN_ANOMALY":"282.5830","TLE_LINE2":"2 52461  53.2171 274.9875 0000893  77.5262 282.5830 15.08842223 59513","ECCENTRICITY":"0.00008930","NORAD_CAT_ID":"52461","RCS_SIZE":"LARGE","DECAY_DATE":null,"MEAN_MOTION_DOT":"0.00000069","REV_AT_EPOCH":"5951","SEMIMAJOR_AXIS":"6917.874","GP_ID":"232963932","MEAN_MOTION":"15.08842223","EPOCH":"2023-06-01T01:28:17.095872","RA_OF_ASC_NODE":"274.9875","CENTER_NAME":"EARTH","OBJECT_ID":"2022-049L","MEAN_MOTION_DDOT":"0.0000000000000","TIME_SYSTEM":"UTC","FILE":"3922365","ELEMENT_SET_NO":"999","ARG_OF_PERICENTER":"77.5262","PERIOD":"95.437","COUNTRY_CODE":"US","CLASSIFICATION_TYPE":"U","OBJECT_NAME":"STARLINK-3900","APOAPSIS":"540.356","SITE":"AFETR","LAUNCH_DATE":"2022-05-06","INCLINATION":"53.2171","REF_FRAME":"TEME","MEAN_ELEMENT_THEORY":"SGP4","OBJECT_TYPE":"PAYLOAD","TLE_LINE1":"1 52461U 22049L   23152.06130898  .00000069  00000-0  22394-4 0  9992","EPHEMERIS_TYPE":"0"},{"BSTAR":"0.00007477700000","MEAN_ANOMALY":"281.1691","PERIAPSIS":"539.250","ECCENTRICITY":"0.00007390","NORAD_CAT_ID":"52462","TLE_LINE2":"2 52462  53.2167 283.5273 0000739  78.9385 281.1691 15.08834974 59588","RCS_SIZE":"LARGE","DECAY_DATE":null,"REV_AT_EPOCH":"5958","SEMIMAJOR_AXIS":"6917.896","MEAN_MOTION_DOT":"0.00000902","GP_ID":"232973305","CENTER_NAME":"EARTH","EPOCH":"2023-06-01T09:19:58.427616","MEAN_MOTION":"15.08834974","RA_OF_ASC_NODE":"283.5273","OBJECT_ID":"2022-049M","MEAN_MOTION_DDOT":"0.0000000000000","ARG_OF_PERICENTER":"78.9385","PERIOD":"95.438","TIME_SYSTEM":"UTC","ELEMENT_SET_NO":"999","FILE":"3922649","OBJECT_NAME":"STARLINK-3903","COUNTRY_CODE":"US","CLASSIFICATION_TYPE":"U","SITE":"AFETR","APOAPSIS":"540.272","LAUNCH_DATE":"2022-05-06","INCLINATION":"53.2167","OBJECT_TYPE":"PAYLOAD","MEAN_ELEMENT_THEORY":"SGP4","EPHEMERIS_TYPE":"0","TLE_LINE1":"1 52462U 22049M   23152.38887069  .00000902  00000-0  74777-4 0  9995","REF_FRAME":"TEME"},{"MEAN_MOTION_DDOT":"0.0000000000000","TIME_SYSTEM":"UTC","ELEMENT_SET_NO":"999","FILE":"3922365","ARG_OF_PERICENTER":"94.9018","PERIOD":"95.437","COUNTRY_CODE":"US","OBJECT_NAME":"STARLINK-3885","CLASSIFICATION_TYPE":"U","APOAPSIS":"540.269","SITE":"AFETR","LAUNCH_DATE":"2022-05-06","INCLINATION":"53.2156","REF_FRAME":"TEME","OBJECT_TYPE":"PAYLOAD","MEAN_ELEMENT_THEORY":"SGP4","EPHEMERIS_TYPE":"0","TLE_LINE1":"1 52463U 22049N   23152.05762927  .00000788  00000-0  67566-4 0  9995","BSTAR":"0.00006756600000","PERIAPSIS":"539.208","MEAN_ANOMALY":"265.2061","TLE_LINE2":"2 52463  53.2156 275.0060 0000767  94.9018 265.2061 15.08842150 59511","ECCENTRICITY":"0.00007670","NORAD_CAT_ID":"52463","DECAY_DATE":null,"RCS_SIZE":"LARGE","MEAN_MOTION_DOT":"0.00000788","REV_AT_EPOCH":"5951","SEMIMAJOR_AXIS":"6917.874","GP_ID":"232962936","MEAN_MOTION":"15.08842150","EPOCH":"2023-06-01T01:22:59.168928","RA_OF_ASC_NODE":"275.0060","CENTER_NAME":"EARTH","OBJECT_ID":"2022-049N"},{"LAUNCH_DATE":"2022-05-06","INCLINATION":"53.2154","SITE":"AFETR","APOAPSIS":"540.251","OBJECT_TYPE":"PAYLOAD","MEAN_ELEMENT_THEORY":"SGP4","TLE_LINE1":"1 52464U 22049P   23152.06038836  .00000590  00000-0  55119-4 0  9994","EPHEMERIS_TYPE":"0","REF_FRAME":"TEME","ARG_OF_PERICENTER":"86.8547","PERIOD":"95.438","TIME_SYSTEM":"UTC","FILE":"3922365","ELEMENT_SET_NO":"999","MEAN_MOTION_DDOT":"0.0000000000000","OBJECT_NAME":"STARLINK-3904","COUNTRY_CODE":"US","CLASSIFICATION_TYPE":"U","GP_ID":"232963687","REV_AT_EPOCH":"5937","SEMIMAJOR_AXIS":"6917.878","MEAN_MOTION_DOT":"0.00000590","OBJECT_ID":"2022-049P","CENTER_NAME":"EARTH","EPOCH":"2023-06-01T01:26:57.554304","MEAN_MOTION":"15.08840836","RA_OF_ASC_NODE":"284.9915","MEAN_ANOMALY":"273.2530","PERIAPSIS":"539.235","BSTAR":"0.00005511900000","DECAY_DATE":null,"RCS_SIZE":"LARGE","ECCENTRICITY":"0.00007340","NORAD_CAT_ID":"52464","TLE_LINE2":"2 52464  53.2154 284.9915 0000734  86.8547 273.2530 15.08840836 59372"},{"GP_ID":"232963432","REV_AT_EPOCH":"5951","SEMIMAJOR_AXIS":"6917.885","MEAN_MOTION_DOT":"-0.00000496","OBJECT_ID":"2022-049Q","CENTER_NAME":"EARTH","MEAN_MOTION":"15.08838644","EPOCH":"2023-06-01T01:17:41.206560","RA_OF_ASC_NODE":"275.0175","MEAN_ANOMALY":"272.2675","PERIAPSIS":"539.096","BSTAR":"-0.00001308300000","DECAY_DATE":null,"RCS_SIZE":"LARGE","ECCENTRICITY":"0.00009440","NORAD_CAT_ID":"52465","TLE_LINE2":"2 52465  53.2163 275.0175 0000944  87.8425 272.2675 15.08838644 59510","LAUNCH_DATE":"2022-05-06","INCLINATION":"53.2163","SITE":"AFETR","APOAPSIS":"540.403","MEAN_ELEMENT_THEORY":"SGP4","OBJECT_TYPE":"PAYLOAD","TLE_LINE1":"1 52465U 22049Q   23152.05394915 -.00000496  00000-0 -13083-4 0  9998","EPHEMERIS_TYPE":"0","REF_FRAME":"TEME","ARG_OF_PERICENTER":"87.8425","PERIOD":"95.438","TIME_SYSTEM":"UTC","ELEMENT_SET_NO":"999","FILE":"3922365","MEAN_MOTION_DDOT":"0.0000000000000","CLASSIFICATION_TYPE":"U","COUNTRY_CODE":"US","OBJECT_NAME":"STARLINK-3863"}];
